LEMUR-2-GREENBERG       
1 42837U 17042N   26068.46200528  .00019778  00000+0  72539-3 0  9997
2 42837  97.3781 249.8007 0009157   4.0119 356.1192 15.27971352473146
STARLINK-2098           
1 47378U 21005AF  26068.08594952 -.00000362  00000+0 -98556-7 0  9993
2 47378  53.1592  16.9696 0001227  84.6552 275.4589 15.30199006283620
